[
    {
        "Altitude(m)": 556874.5529566135,
        "Argument of Periapsis(deg)": 0.0,
        "Eccentricity": 0.0,
        "Inclination(deg)": 53.0,
        "Latitude(deg)": -13.154168283085207,
        "Longitude(deg)": -99.88228332730652,
        "Mean Anomaly(deg)": -163.6364,
        "RAAN(deg)": 170.00000000000003,
        "Satellite Name": "Starlink Shell 1 760",
        "Satellite Number": 760,
        "Semi-Major Axis(m)": 6931778.249405717,
        "Time(s)": 0
    },
    {
        "Altitude(m)": 557007.6437614667,
        "Argument of Periapsis(deg)": 0.00034857847951123687,
        "Eccentricity": 0.0,
        "Inclination(deg)": 53.0,
        "Latitude(deg)": -13.649420091828704,
        "Longitude(deg)": -99.5259442725733,
        "Mean Anomaly(deg)": -163.00956879644326,
        "RAAN(deg)": 169.99948122992254,
        "Satellite Name": "Starlink Shell 1 760",
        "Satellite Number": 760,
        "Semi-Major Axis(m)": 6931778.249405717,
        "Time(s)": 10
    },
    {
        "Altitude(m)": 557142.8293785637,
        "Argument of Periapsis(deg)": 0.0006971569590224737,
        "Eccentricity": 0.0,
        "Inclination(deg)": 53.0,
        "Latitude(deg)": -14.143999245128162,
        "Longitude(deg)": -99.1679567024076,
        "Mean Anomaly(deg)": -162.3827375928866,
        "RAAN(deg)": 169.99896245984507,
        "Satellite Name": "Starlink Shell 1 760",
        "Satellite Number": 760,
        "Semi-Major Axis(m)": 6931778.249405717,
        "Time(s)": 20
    },
    {
        "Altitude(m)": 557280.0670415871,
        "Argument of Periapsis(deg)": 0.0010457354385337105,
        "Eccentricity": 0.0,
        "Inclination(deg)": 53.0,
        "Latitude(deg)": -14.637878188316924,
        "Longitude(deg)": -98.80825340128608,
        "Mean Anomaly(deg)": -161.75590638932988,
        "RAAN(deg)": 169.99844368976758,
        "Satellite Name": "Starlink Shell 1 760",
        "Satellite Number": 760,
        "Semi-Major Axis(m)": 6931778.249405717,
        "Time(s)": 30
    },
    {
        "Altitude(m)": 557419.3129228587,
        "Argument of Periapsis(deg)": 0.0013943139180449475,
        "Eccentricity": 0.0,
        "Inclination(deg)": 53.0,
        "Latitude(deg)": -15.1310289986702,
        "Longitude(deg)": -98.44676592355168,
        "Mean Anomaly(deg)": -161.1290751857732,
        "RAAN(deg)": 169.99792491969012,
        "Satellite Name": "Starlink Shell 1 760",
        "Satellite Number": 760,
        "Semi-Major Axis(m)": 6931778.249405717,
        "Time(s)": 40
    },
    {
        "Altitude(m)": 557560.5221524236,
        "Argument of Periapsis(deg)": 0.0017428923975561844,
        "Eccentricity": 0.0,
        "Inclination(deg)": 53.0,
        "Latitude(deg)": -15.623423369021653,
        "Longitude(deg)": -98.08342557529735,
        "Mean Anomaly(deg)": -160.5022439822164,
        "RAAN(deg)": 169.99740614961263,
        "Satellite Name": "Starlink Shell 1 760",
        "Satellite Number": 760,
        "Semi-Major Axis(m)": 6931778.249405717,
        "Time(s)": 50
    },
    {
        "Altitude(m)": 557703.6488376424,
        "Argument of Periapsis(deg)": 0.002091470877067421,
        "Eccentricity": 0.0,
        "Inclination(deg)": 53.0,
        "Latitude(deg)": -16.115032591037366,
        "Longitude(deg)": -97.71816288340435,
        "Mean Anomaly(deg)": -159.8754127786597,
        "RAAN(deg)": 169.9968873795352,
        "Satellite Name": "Starlink Shell 1 760",
        "Satellite Number": 760,
        "Semi-Major Axis(m)": 6931778.249405717,
        "Time(s)": 60
    },
    {
        "Altitude(m)": 557848.6460832645,
        "Argument of Periapsis(deg)": 0.0024400493565786582,
        "Eccentricity": 0.0,
        "Inclination(deg)": 53.0,
        "Latitude(deg)": -16.605827538135145,
        "Longitude(deg)": -97.35090706463059,
        "Mean Anomaly(deg)": -159.248581575103,
        "RAAN(deg)": 169.9963686094577,
        "Satellite Name": "Starlink Shell 1 760",
        "Satellite Number": 760,
        "Semi-Major Axis(m)": 6931778.249405717,
        "Time(s)": 70
    },
    {
        "Altitude(m)": 557995.4660120176,
        "Argument of Periapsis(deg)": 0.002788627836089895,
        "Eccentricity": 0.0,
        "Inclination(deg)": 53.0,
        "Latitude(deg)": -17.09577864803576,
        "Longitude(deg)": -96.98158700764988,
        "Mean Anomaly(deg)": -158.62175037154634,
        "RAAN(deg)": 169.99584983938024,
        "Satellite Name": "Starlink Shell 1 760",
        "Satellite Number": 760,
        "Semi-Major Axis(m)": 6931778.249405717,
        "Time(s)": 80
    },
    {
        "Altitude(m)": 558144.0597856301,
        "Argument of Periapsis(deg)": 0.0031372063156011316,
        "Eccentricity": 0.0,
        "Inclination(deg)": 53.0,
        "Latitude(deg)": -17.58485590493549,
        "Longitude(deg)": -96.61013074232366,
        "Mean Anomaly(deg)": -157.9949191679896,
        "RAAN(deg)": 169.99533106930275,
        "Satellite Name": "Starlink Shell 1 760",
        "Satellite Number": 760,
        "Semi-Major Axis(m)": 6931778.249405717,
        "Time(s)": 90
    },
    {
        "Altitude(m)": 558294.3776264042,
        "Argument of Periapsis(deg)": 0.0034857847951123688,
        "Eccentricity": 0.0,
        "Inclination(deg)": 53.0,
        "Latitude(deg)": -18.073028821287213,
        "Longitude(deg)": -96.23646490911031,
        "Mean Anomaly(deg)": -157.36808796443285,
        "RAAN(deg)": 169.9948122992253,
        "Satellite Name": "Starlink Shell 1 760",
        "Satellite Number": 760,
        "Semi-Major Axis(m)": 6931778.249405717,
        "Time(s)": 100
    },
    {
        "Altitude(m)": 558446.3688391403,
        "Argument of Periapsis(deg)": 0.003834363274623606,
        "Eccentricity": 0.0,
        "Inclination(deg)": 53.0,
        "Latitude(deg)": -18.5602664191782,
        "Longitude(deg)": -95.8605157415243,
        "Mean Anomaly(deg)": -156.74125676087615,
        "RAAN(deg)": 169.9942935291478,
        "Satellite Name": "Starlink Shell 1 760",
        "Satellite Number": 760,
        "Semi-Major Axis(m)": 6931778.249405717,
        "Time(s)": 110
    },
    {
        "Altitude(m)": 558599.9818336002,
        "Argument of Periapsis(deg)": 0.004182941754134842,
        "Eccentricity": 0.0,
        "Inclination(deg)": 53.0,
        "Latitude(deg)": -19.04653721129363,
        "Longitude(deg)": -95.48220853593523,
        "Mean Anomaly(deg)": -156.1144255573194,
        "RAAN(deg)": 169.99377475907036,
        "Satellite Name": "Starlink Shell 1 760",
        "Satellite Number": 760,
        "Semi-Major Axis(m)": 6931778.249405717,
        "Time(s)": 120
    },
    {
        "Altitude(m)": 558755.164147341,
        "Argument of Periapsis(deg)": 0.004531520233646079,
        "Eccentricity": 0.0,
        "Inclination(deg)": 53.0,
        "Latitude(deg)": -19.531809181453593,
        "Longitude(deg)": -95.10146712162773,
        "Mean Anomaly(deg)": -155.48759435376274,
        "RAAN(deg)": 169.99325598899287,
        "Satellite Name": "Starlink Shell 1 760",
        "Satellite Number": 760,
        "Semi-Major Axis(m)": 6931778.249405717,
        "Time(s)": 130
    },
    {
        "Altitude(m)": 558911.8624690167,
        "Argument of Periapsis(deg)": 0.0048800987131573164,
        "Eccentricity": 0.0,
        "Inclination(deg)": 53.0,
        "Latitude(deg)": -20.016049764713493,
        "Longitude(deg)": -94.71821484404208,
        "Mean Anomaly(deg)": -154.86076315020597,
        "RAAN(deg)": 169.99273721891538,
        "Satellite Name": "Starlink Shell 1 760",
        "Satellite Number": 760,
        "Semi-Major Axis(m)": 6931778.249405717,
        "Time(s)": 140
    },
    {
        "Altitude(m)": 559070.0226620435,
        "Argument of Periapsis(deg)": 0.005228677192668553,
        "Eccentricity": 0.0,
        "Inclination(deg)": 53.0,
        "Latitude(deg)": -20.49922582701631,
        "Longitude(deg)": -94.33237403550429,
        "Mean Anomaly(deg)": -154.23393194664928,
        "RAAN(deg)": 169.99221844883792,
        "Satellite Name": "Starlink Shell 1 760",
        "Satellite Number": 760,
        "Semi-Major Axis(m)": 6931778.249405717,
        "Time(s)": 150
    },
    {
        "Altitude(m)": 559229.5897886927,
        "Argument of Periapsis(deg)": 0.00557725567217979,
        "Eccentricity": 0.0,
        "Inclination(deg)": 53.0,
        "Latitude(deg)": -20.981303644387737,
        "Longitude(deg)": -93.943865486376,
        "Mean Anomaly(deg)": -153.6071007430926,
        "RAAN(deg)": 169.99169967876045,
        "Satellite Name": "Starlink Shell 1 760",
        "Satellite Number": 760,
        "Semi-Major Axis(m)": 6931778.249405717,
        "Time(s)": 160
    },
    {
        "Altitude(m)": 559390.5081345643,
        "Argument of Periapsis(deg)": 0.0059258341516910265,
        "Eccentricity": 0.0,
        "Inclination(deg)": 53.0,
        "Latitude(deg)": -21.462248881662394,
        "Longitude(deg)": -93.55260942956474,
        "Mean Anomaly(deg)": -152.98026953953584,
        "RAAN(deg)": 169.99118090868296,
        "Satellite Name": "Starlink Shell 1 760",
        "Satellite Number": 760,
        "Semi-Major Axis(m)": 6931778.249405717,
        "Time(s)": 170
    },
    {
        "Altitude(m)": 559552.721233419,
        "Argument of Periapsis(deg)": 0.006274412631202263,
        "Eccentricity": 0.0,
        "Inclination(deg)": 53.0,
        "Latitude(deg)": -21.942026570734097,
        "Longitude(deg)": -93.15852501271549,
        "Mean Anomaly(deg)": -152.35343833597912,
        "RAAN(deg)": 169.9906621386055,
        "Satellite Name": "Starlink Shell 1 760",
        "Satellite Number": 760,
        "Semi-Major Axis(m)": 6931778.249405717,
        "Time(s)": 180
    }
]